[{"OBJECT_NAME":"GONETS-M 7","OBJECT_ID":"2013-048C","EPOCH":"2026-03-09T23:42:54.853632","MEAN_MOTION":12.429108,"ECCENTRICITY":0.00186378,"INCLINATION":82.4876,"RA_OF_ASC_NODE":48.0853,"ARG_OF_PERICENTER":71.0162,"MEAN_ANOMALY":289.2936,"EPHEMERIS_TYPE":0,"CLASSIFICATION_TYPE":"U","NORAD_CAT_ID":39251,"ELEMENT_SET_NO":999,"REV_AT_EPOCH":56651,"BSTAR":0.0002596887,"MEAN_MOTION_DOT":4.6e-7,"MEAN_MOTION_DDOT":0},{"OBJECT_NAME":"DELTA 1 DEB","OBJECT_ID":"1976-077P","EPOCH":"2026-03-09T06:15:14.069664","MEAN_MOTION":12.24261621,"ECCENTRICITY":0.01285908,"INCLINATION":102.6323,"RA_OF_ASC_NODE":187.2337,"ARG_OF_PERICENTER":237.1539,"MEAN_ANOMALY":151.5016,"EPHEMERIS_TYPE":0,"CLASSIFICATION_TYPE":"U","NORAD_CAT_ID":10653,"ELEMENT_SET_NO":999,"REV_AT_EPOCH":21690,"BSTAR":0.0014474706,"MEAN_MOTION_DOT":1.16e-6,"MEAN_MOTION_DDOT":0}]
